{
  "type": "FeatureCollection",
  "features": [
    {
      "type": "Feature",
      "properties": {
        "ward_id": 1,
        "name": "Connaught Place",
        "elevation": 25,
        "drain_blockage": 35,
        "vulnerability": 1.2,
        "population_density": 0.8,
        "has_hospitals": true,
        "has_schools": true,
        "has_metro": true
      },
      "geometry": {
        "type": "Polygon",
        "coordinates": [[
          [77.20, 28.63],
          [77.23, 28.63],
          [77.23, 28.60],
          [77.20, 28.60],
          [77.20, 28.63]
        ]]
      }
    },
    {
      "type": "Feature",
      "properties": {
        "ward_id": 2,
        "name": "Minto Road",
        "elevation": 18,
        "drain_blockage": 65,
        "vulnerability": 1.5,
        "population_density": 0.9,
        "has_hospitals": true,
        "has_schools": false,
        "has_metro": true
      },
      "geometry": {
        "type": "Polygon",
        "coordinates": [[
          [77.21, 28.64],
          [77.24, 28.64],
          [77.24, 28.61],
          [77.21, 28.61],
          [77.21, 28.64]
        ]]
      }
    },
    {
      "type": "Feature",
      "properties": {
        "ward_id": 3,
        "name": "Karol Bagh",
        "elevation": 22,
        "drain_blockage": 45,
        "vulnerability": 1.3,
        "population_density": 0.85,
        "has_hospitals": false,
        "has_schools": true,
        "has_metro": true
      },
      "geometry": {
        "type": "Polygon",
        "coordinates": [[
          [77.18, 28.65],
          [77.21, 28.65],
          [77.21, 28.62],
          [77.18, 28.62],
          [77.18, 28.65]
        ]]
      }
    },
    {
      "type": "Feature",
      "properties": {
        "ward_id": 4,
        "name": "Paharganj",
        "elevation": 20,
        "drain_blockage": 55,
        "vulnerability": 1.4,
        "population_density": 0.95,
        "has_hospitals": false,
        "has_schools": true,
        "has_metro": false
      },
      "geometry": {
        "type": "Polygon",
        "coordinates": [[
          [77.19, 28.66],
          [77.22, 28.66],
          [77.22, 28.63],
          [77.19, 28.63],
          [77.19, 28.66]
        ]]
      }
    },
    {
      "type": "Feature",
      "properties": {
        "ward_id": 5,
        "name": "Civil Lines",
        "elevation": 28,
        "drain_blockage": 25,
        "vulnerability": 1.0,
        "population_density": 0.6,
        "has_hospitals": true,
        "has_schools": true,
        "has_metro": false
      },
      "geometry": {
        "type": "Polygon",
        "coordinates": [[
          [77.22, 28.67],
          [77.25, 28.67],
          [77.25, 28.64],
          [77.22, 28.64],
          [77.22, 28.67]
        ]]
      }
    },
    {
      "type": "Feature",
      "properties": {
        "ward_id": 6,
        "name": "Rajendra Place",
        "elevation": 24,
        "drain_blockage": 40,
        "vulnerability": 1.1,
        "population_density": 0.7,
        "has_hospitals": false,
        "has_schools": true,
        "has_metro": true
      },
      "geometry": {
        "type": "Polygon",
        "coordinates": [[
          [77.17, 28.64],
          [77.20, 28.64],
          [77.20, 28.61],
          [77.17, 28.61],
          [77.17, 28.64]
        ]]
      }
    },
    {
      "type": "Feature",
      "properties": {
        "ward_id": 7,
        "name": "Patel Nagar",
        "elevation": 26,
        "drain_blockage": 30,
        "vulnerability": 1.05,
        "population_density": 0.65,
        "has_hospitals": true,
        "has_schools": true,
        "has_metro": true
      },
      "geometry": {
        "type": "Polygon",
        "coordinates": [[
          [77.16, 28.63],
          [77.19, 28.63],
          [77.19, 28.60],
          [77.16, 28.60],
          [77.16, 28.63]
        ]]
      }
    },
    {
      "type": "Feature",
      "properties": {
        "ward_id": 8,
        "name": "Dwarka",
        "elevation": 30,
        "drain_blockage": 20,
        "vulnerability": 0.95,
        "population_density": 0.55,
        "has_hospitals": true,
        "has_schools": true,
        "has_metro": true
      },
      "geometry": {
        "type": "Polygon",
        "coordinates": [[
          [77.05, 28.58],
          [77.08, 28.58],
          [77.08, 28.55],
          [77.05, 28.55],
          [77.05, 28.58]
        ]]
      }
    },
    {
      "type": "Feature",
      "properties": {
        "ward_id": 9,
        "name": "Rohini",
        "elevation": 27,
        "drain_blockage": 35,
        "vulnerability": 1.0,
        "population_density": 0.6,
        "has_hospitals": false,
        "has_schools": true,
        "has_metro": false
      },
      "geometry": {
        "type": "Polygon",
        "coordinates": [[
          [77.10, 28.75],
          [77.13, 28.75],
          [77.13, 28.72],
          [77.10, 28.72],
          [77.10, 28.75]
        ]]
      }
    },
    {
      "type": "Feature",
      "properties": {
        "ward_id": 10,
        "name": "Laxmi Nagar",
        "elevation": 19,
        "drain_blockage": 60,
        "vulnerability": 1.6,
        "population_density": 0.95,
        "has_hospitals": true,
        "has_schools": true,
        "has_metro": true
      },
      "geometry": {
        "type": "Polygon",
        "coordinates": [[
          [77.28, 28.63],
          [77.31, 28.63],
          [77.31, 28.60],
          [77.28, 28.60],
          [77.28, 28.63]
        ]]
      }
    },
    {
      "type": "Feature",
      "properties": {
        "ward_id": 11,
        "name": "Mayur Vihar",
        "elevation": 21,
        "drain_blockage": 50,
        "vulnerability": 1.3,
        "population_density": 0.75,
        "has_hospitals": false,
        "has_schools": true,
        "has_metro": true
      },
      "geometry": {
        "type": "Polygon",
        "coordinates": [[
          [77.30, 28.60],
          [77.33, 28.60],
          [77.33, 28.57],
          [77.30, 28.57],
          [77.30, 28.60]
        ]]
      }
    },
    {
      "type": "Feature",
      "properties": {
        "ward_id": 12,
        "name": "Saket",
        "elevation": 29,
        "drain_blockage": 25,
        "vulnerability": 1.1,
        "population_density": 0.7,
        "has_hospitals": true,
        "has_schools": true,
        "has_metro": false
      },
      "geometry": {
        "type": "Polygon",
        "coordinates": [[
          [77.20, 28.52],
          [77.23, 28.52],
          [77.23, 28.49],
          [77.20, 28.49],
          [77.20, 28.52]
        ]]
      }
    }
  ]
}
